ONEWEB-0116             
1 48046U 21025E   24275.46183442  .00000347  00000+0  91518-3 0  9994
2 48046  87.8855  84.2969 0001630  96.4760 263.6554 13.13471066171771
ONEWEB-0150             
1 48047U 21025F   24275.51261574 -.00000198  00000+0 -57797-3 0  9991
2 48047  87.8850  84.2991 0001611  85.7865 274.3448 13.13469749171673
ONEWEB-0107             
1 48048U 21025G   24275.51419799 -.00000992  00000+0 -27520-2 0  9998
2 48048  87.8853  84.2972 0001981  80.7954 279.3399 13.13467391171659
ONEWEB-0101             
1 48049U 21025H   24275.47770867  .00000185  00000+0  47068-3 0  9992
2 48049  87.8857  84.3272 0001773  89.9532 270.1800 13.13469123171628
ONEWEB-0113             
1 48050U 21025J   24275.45548247  .00000243  00000+0  63180-3 0  9995
2 48050  87.8856  84.3122 0001635  94.8695 265.2621 13.13470321171702
ONEWEB-0112             
1 48051U 21025K   24275.51896881 -.00000017  00000+0 -80158-4 0  9999
2 48051  87.8850  84.2933 0001618  90.0939 270.0376 13.13470509171727
ONEWEB-0156             
1 48052U 21025L   24275.52849828  .00000153  00000+0  38356-3 0  9991
2 48052  87.8853  84.2927 0001642  90.4280 269.7037 13.13469769171707
ONEWEB-0161             
1 48053U 21025M   24275.50150862 -.00000251  00000+0 -72144-3 0  9997
2 48053  87.8859  84.3084 0001825  87.2120 272.9218 13.13469979171631
